[{"OBJECT_NAME":"DIRECTV 14","OBJECT_ID":"2014-078B","EPOCH":"2026-03-05T15:14:04.553952","MEAN_MOTION":1.00271102,"ECCENTRICITY":5.95e-5,"INCLINATION":0.0223,"RA_OF_ASC_NODE":140.6418,"ARG_OF_PERICENTER":348.2371,"MEAN_ANOMALY":163.7954,"EPHEMERIS_TYPE":0,"CLASSIFICATION_TYPE":"U","NORAD_CAT_ID":40333,"ELEMENT_SET_NO":999,"REV_AT_EPOCH":4100,"BSTAR":0,"MEAN_MOTION_DOT":0,"MEAN_MOTION_DDOT":0},{"OBJECT_NAME":"YAMAL 401","OBJECT_ID":"2014-082A","EPOCH":"2026-03-05T16:08:14.361216","MEAN_MOTION":1.00273333,"ECCENTRICITY":7.22e-5,"INCLINATION":0.0106,"RA_OF_ASC_NODE":139.5672,"ARG_OF_PERICENTER":338.6357,"MEAN_ANOMALY":17.1861,"EPHEMERIS_TYPE":0,"CLASSIFICATION_TYPE":"U","NORAD_CAT_ID":40345,"ELEMENT_SET_NO":999,"REV_AT_EPOCH":4088,"BSTAR":0,"MEAN_MOTION_DOT":-2.35e-6,"MEAN_MOTION_DDOT":0},{"OBJECT_NAME":"ASTRA 2G","OBJECT_ID":"2014-089A","EPOCH":"2026-03-05T15:45:36.629280","MEAN_MOTION":1.00271677,"ECCENTRICITY":0.0004475,"INCLINATION":0.0241,"RA_OF_ASC_NODE":10.7878,"ARG_OF_PERICENTER":19.7531,"MEAN_ANOMALY":37.4393,"EPHEMERIS_TYPE":0,"CLASSIFICATION_TYPE":"U","NORAD_CAT_ID":40364,"ELEMENT_SET_NO":999,"REV_AT_EPOCH":4092,"BSTAR":0,"MEAN_MOTION_DOT":0,"MEAN_MOTION_DDOT":0},{"OBJECT_NAME":"FENGYUN 2G","OBJECT_ID":"2014-090A","EPOCH":"2026-03-05T12:45:33.793632","MEAN_MOTION":1.00274179,"ECCENTRICITY":0.0001795,"INCLINATION":5.377,"RA_OF_ASC_NODE":74.074,"ARG_OF_PERICENTER":152.3753,"MEAN_ANOMALY":227.8922,"EPHEMERIS_TYPE":0,"CLASSIFICATION_TYPE":"U","NORAD_CAT_ID":40367,"ELEMENT_SET_NO":999,"REV_AT_EPOCH":4096,"BSTAR":0,"MEAN_MOTION_DOT":-3.08e-6,"MEAN_MOTION_DDOT":0},{"OBJECT_NAME":"INMARSAT 5-F2","OBJECT_ID":"2015-005A","EPOCH":"2026-03-05T12:01:30.518688","MEAN_MOTION":1.00272082,"ECCENTRICITY":3.09e-5,"INCLINATION":0.0199,"RA_OF_ASC_NODE":134.3302,"ARG_OF_PERICENTER":107.1043,"MEAN_ANOMALY":47.125,"EPHEMERIS_TYPE":0,"CLASSIFICATION_TYPE":"U","NORAD_CAT_ID":40384,"ELEMENT_SET_NO":999,"REV_AT_EPOCH":3995,"BSTAR":0,"MEAN_MOTION_DOT":-2.93e-6,"MEAN_MOTION_DDOT":0},{"OBJECT_NAME":"ABS-3A","OBJECT_ID":"2015-010A","EPOCH":"2026-03-05T15:41:39.411168","MEAN_MOTION":1.00270246,"ECCENTRICITY":0.0001889,"INCLINATION":0.0117,"RA_OF_ASC_NODE":154.2718,"ARG_OF_PERICENTER":133.6209,"MEAN_ANOMALY":107.9321,"EPHEMERIS_TYPE":0,"CLASSIFICATION_TYPE":"U","NORAD_CAT_ID":40424,"ELEMENT_SET_NO":999,"REV_AT_EPOCH":4033,"BSTAR":0,"MEAN_MOTION_DOT":-3.4e-7,"MEAN_MOTION_DDOT":0},{"OBJECT_NAME":"EUTELSAT 115 WEST B","OBJECT_ID":"2015-010B","EPOCH":"2026-03-05T06:41:38.757120","MEAN_MOTION":1.00272581,"ECCENTRICITY":1.8e-5,"INCLINATION":0.029,"RA_OF_ASC_NODE":16.3684,"ARG_OF_PERICENTER":73.5386,"MEAN_ANOMALY":58.6084,"EPHEMERIS_TYPE":0,"CLASSIFICATION_TYPE":"U","NORAD_CAT_ID":40425,"ELEMENT_SET_NO":999,"REV_AT_EPOCH":4035,"BSTAR":0,"MEAN_MOTION_DOT":-3.3e-7,"MEAN_MOTION_DDOT":0},{"OBJECT_NAME":"EXPRESS-AM7","OBJECT_ID":"2015-012A","EPOCH":"2026-03-05T12:28:35.421024","MEAN_MOTION":1.0027626,"ECCENTRICITY":0.0002951,"INCLINATION":0.0205,"RA_OF_ASC_NODE":190.53,"ARG_OF_PERICENTER":142.4206,"MEAN_ANOMALY":57.4704,"EPHEMERIS_TYPE":0,"CLASSIFICATION_TYPE":"U","NORAD_CAT_ID":40505,"ELEMENT_SET_NO":999,"REV_AT_EPOCH":3996,"BSTAR":0,"MEAN_MOTION_DOT":1.43e-6,"MEAN_MOTION_DDOT":0},{"OBJECT_NAME":"BEIDOU-3S IGSO-1S","OBJECT_ID":"2015-019A","EPOCH":"2026-03-05T14:27:24.030144","MEAN_MOTION":1.00273608,"ECCENTRICITY":0.0035816,"INCLINATION":49.3881,"RA_OF_ASC_NODE":296.7093,"ARG_OF_PERICENTER":190.5073,"MEAN_ANOMALY":349.448,"EPHEMERIS_TYPE":0,"CLASSIFICATION_TYPE":"U","NORAD_CAT_ID":40549,"ELEMENT_SET_NO":999,"REV_AT_EPOCH":4003,"BSTAR":0,"MEAN_MOTION_DOT":-1.65e-6,"MEAN_MOTION_DDOT":0},{"OBJECT_NAME":"THOR 7","OBJECT_ID":"2015-022A","EPOCH":"2026-03-05T15:42:24.338304","MEAN_MOTION":1.00271736,"ECCENTRICITY":0.0002632,"INCLINATION":0.011,"RA_OF_ASC_NODE":159.8598,"ARG_OF_PERICENTER":187.6178,"MEAN_ANOMALY":50.8317,"EPHEMERIS_TYPE":0,"CLASSIFICATION_TYPE":"U","NORAD_CAT_ID":40613,"ELEMENT_SET_NO":999,"REV_AT_EPOCH":3977,"BSTAR":0,"MEAN_MOTION_DOT":-1.6e-7,"MEAN_MOTION_DDOT":0},{"OBJECT_NAME":"TURKMENALEM52E/MONACOSAT","OBJECT_ID":"2015-023A","EPOCH":"2026-03-05T10:49:22.435104","MEAN_MOTION":1.00275311,"ECCENTRICITY":0.0002927,"INCLINATION":0.0146,"RA_OF_ASC_NODE":131.0008,"ARG_OF_PERICENTER":224.4072,"MEAN_ANOMALY":22.1559,"EPHEMERIS_TYPE":0,"CLASSIFICATION_TYPE":"U","NORAD_CAT_ID":40617,"ELEMENT_SET_NO":999,"REV_AT_EPOCH":3980,"BSTAR":0,"MEAN_MOTION_DOT":9.6e-7,"MEAN_MOTION_DDOT":0},{"OBJECT_NAME":"DIRECTV 15","OBJECT_ID":"2015-026A","EPOCH":"2026-03-05T15:13:12.137664","MEAN_MOTION":1.00270077,"ECCENTRICITY":4.7e-5,"INCLINATION":0.0224,"RA_OF_ASC_NODE":103.7211,"ARG_OF_PERICENTER":108.878,"MEAN_ANOMALY":76.1752,"EPHEMERIS_TYPE":0,"CLASSIFICATION_TYPE":"U","NORAD_CAT_ID":40663,"ELEMENT_SET_NO":999,"REV_AT_EPOCH":3942,"BSTAR":0,"MEAN_MOTION_DOT":-1.09e-6,"MEAN_MOTION_DDOT":0},{"OBJECT_NAME":"SKY MEXICO-1","OBJECT_ID":"2015-026B","EPOCH":"2026-03-05T10:11:56.023872","MEAN_MOTION":1.00269501,"ECCENTRICITY":0.000225,"INCLINATION":0.02,"RA_OF_ASC_NODE":125.8533,"ARG_OF_PERICENTER":238.8701,"MEAN_ANOMALY":232.6041,"EPHEMERIS_TYPE":0,"CLASSIFICATION_TYPE":"U","NORAD_CAT_ID":40664,"ELEMENT_SET_NO":999,"REV_AT_EPOCH":3941,"BSTAR":0,"MEAN_MOTION_DOT":-2.42e-6,"MEAN_MOTION_DDOT":0},{"OBJECT_NAME":"METEOSAT-11 (MSG-4)","OBJECT_ID":"2015-034A","EPOCH":"2026-03-05T15:45:09.075456","MEAN_MOTION":1.00266494,"ECCENTRICITY":0.0001808,"INCLINATION":2.9407,"RA_OF_ASC_NODE":71.6729,"ARG_OF_PERICENTER":270.8696,"MEAN_ANOMALY":66.5022,"EPHEMERIS_TYPE":0,"CLASSIFICATION_TYPE":"U","NORAD_CAT_ID":40732,"ELEMENT_SET_NO":999,"REV_AT_EPOCH":617,"BSTAR":0,"MEAN_MOTION_DOT":5.6e-7,"MEAN_MOTION_DDOT":0},{"OBJECT_NAME":"STAR ONE C4","OBJECT_ID":"2015-034B","EPOCH":"2026-03-05T17:59:52.598112","MEAN_MOTION":1.00272601,"ECCENTRICITY":0.0002749,"INCLINATION":0.0401,"RA_OF_ASC_NODE":22.9461,"ARG_OF_PERICENTER":329.369,"MEAN_ANOMALY":11.122,"EPHEMERIS_TYPE":0,"CLASSIFICATION_TYPE":"U","NORAD_CAT_ID":40733,"ELEMENT_SET_NO":999,"REV_AT_EPOCH":3897,"BSTAR":0,"MEAN_MOTION_DOT":-2.72e-6,"MEAN_MOTION_DDOT":0},{"OBJECT_NAME":"WGS F7 (USA 263)","OBJECT_ID":"2015-036A","EPOCH":"2026-03-05T17:29:38.583456","MEAN_MOTION":1.00273262,"ECCENTRICITY":1.83e-5,"INCLINATION":0.0132,"RA_OF_ASC_NODE":123.0001,"ARG_OF_PERICENTER":198.1282,"MEAN_ANOMALY":279.7534,"EPHEMERIS_TYPE":0,"CLASSIFICATION_TYPE":"U","NORAD_CAT_ID":40746,"ELEMENT_SET_NO":999,"REV_AT_EPOCH":3883,"BSTAR":0,"MEAN_MOTION_DOT":1.1e-7,"MEAN_MOTION_DDOT":0},{"OBJECT_NAME":"INTELSAT 34 (IS-34)","OBJECT_ID":"2015-039A","EPOCH":"2026-03-05T19:34:46.809120","MEAN_MOTION":1.0026756,"ECCENTRICITY":5.14e-5,"INCLINATION":0.0155,"RA_OF_ASC_NODE":178.2365,"ARG_OF_PERICENTER":270.4265,"MEAN_ANOMALY":313.1021,"EPHEMERIS_TYPE":0,"CLASSIFICATION_TYPE":"U","NORAD_CAT_ID":40874,"ELEMENT_SET_NO":999,"REV_AT_EPOCH":3858,"BSTAR":0,"MEAN_MOTION_DOT":0,"MEAN_MOTION_DDOT":0}]
